start=new Date('2022-03-12T00:00:00.000Z').valueOf();
sats=[{"APOAPSIS":"548.301","CENTER_NAME":"EARTH","GP_ID":"198519765","TLE_LINE2":"2 48365  53.0548  66.3445 0001590  58.4530 301.6614 15.06404378 47191","BSTAR":"0.00007678600000","PERIOD":"95.592","FILE":"3355378","OBJECT_NAME":"STARLINK-2608","MEAN_ANOMALY":"301.6614","OBJECT_ID":"2021-038N","INCLINATION":"53.0548","REF_FRAME":"TEME","RA_OF_ASC_NODE":"66.3445","SITE":"AFETR","MEAN_MOTION_DOT":"0.00000862","LAUNCH_DATE":"2021-05-04","PERIAPSIS":"546.099","SEMIMAJOR_AXIS":"6925.335","MEAN_MOTION":"15.06404378","TLE_LINE1":"1 48365U 21038N   22070.68761061  .00000862  00000-0  76786-4 0  9990","NORAD_CAT_ID":"48365","ARG_OF_PERICENTER":"58.4530","TIME_SYSTEM":"UTC","COUNTRY_CODE":"US","EPHEMERIS_TYPE":"0","EPOCH":"2022-03-11T16:30:09.556704","DECAY_DATE":null,"REV_AT_EPOCH":"4719","MEAN_MOTION_DDOT":"0.0000000000000","MEAN_ELEMENT_THEORY":"SGP4","RCS_SIZE":"LARGE","OBJECT_TYPE":"PAYLOAD","ECCENTRICITY":"0.00015900","CLASSIFICATION_TYPE":"U","ELEMENT_SET_NO":"999"},{"EPOCH":"2022-03-11T11:25:37.708896","EPHEMERIS_TYPE":"0","DECAY_DATE":null,"COUNTRY_CODE":"US","TIME_SYSTEM":"UTC","ARG_OF_PERICENTER":"60.0561","NORAD_CAT_ID":"48366","ECCENTRICITY":"0.00017470","OBJECT_TYPE":"PAYLOAD","ELEMENT_SET_NO":"999","CLASSIFICATION_TYPE":"U","MEAN_MOTION_DDOT":"0.0000000000000","REV_AT_EPOCH":"4722","RCS_SIZE":"LARGE","MEAN_ELEMENT_THEORY":"SGP4","REF_FRAME":"TEME","RA_OF_ASC_NODE":"62.2771","INCLINATION":"53.0559","SITE":"AFETR","PERIOD":"95.592","TLE_LINE2":"2 48366  53.0559  62.2771 0001747  60.0561 300.0601 15.06406373 47228","BSTAR":"0.00019876000000","CENTER_NAME":"EARTH","GP_ID":"198519516","APOAPSIS":"548.404","OBJECT_ID":"2021-038P","MEAN_ANOMALY":"300.0601","FILE":"3355378","OBJECT_NAME":"STARLINK-2631","TLE_LINE1":"1 48366U 21038P   22070.47613089  .00002681  00000-0  19876-3 0  9991","MEAN_MOTION":"15.06406373","LAUNCH_DATE":"2021-05-04","MEAN_MOTION_DOT":"0.00002681","PERIAPSIS":"545.984","SEMIMAJOR_AXIS":"6925.329"},{"OBJECT_ID":"2021-038Q","MEAN_ANOMALY":"307.4870","OBJECT_NAME":"STARLINK-2643","FILE":"3355378","TLE_LINE2":"2 48367  53.0548  61.4139 0001946  52.6296 307.4870 15.06417519 47255","BSTAR":"0.00068489000000","PERIOD":"95.591","CENTER_NAME":"EARTH","GP_ID":"198518764","APOAPSIS":"548.508","SITE":"AFETR","RA_OF_ASC_NODE":"61.4139","REF_FRAME":"TEME","INCLINATION":"53.0548","SEMIMAJOR_AXIS":"6925.295","PERIAPSIS":"545.812","LAUNCH_DATE":"2021-05-04","MEAN_MOTION_DOT":"0.00009939","TLE_LINE1":"1 48367U 21038Q   22070.67148650  .00009939  00000-0  68489-3 0  9998","MEAN_MOTION":"15.06417519","COUNTRY_CODE":"US","ARG_OF_PERICENTER":"52.6296","TIME_SYSTEM":"UTC","NORAD_CAT_ID":"48367","DECAY_DATE":null,"EPOCH":"2022-03-11T16:06:56.433600","EPHEMERIS_TYPE":"0","MEAN_ELEMENT_THEORY":"SGP4","RCS_SIZE":"LARGE","MEAN_MOTION_DDOT":"0.0000000000000","REV_AT_EPOCH":"4725","ELEMENT_SET_NO":"999","CLASSIFICATION_TYPE":"U","ECCENTRICITY":"0.00019460","OBJECT_TYPE":"PAYLOAD"},{"RCS_SIZE":"LARGE","MEAN_ELEMENT_THEORY":"SGP4","REV_AT_EPOCH":"4726","MEAN_MOTION_DDOT":"0.0000000000000","CLASSIFICATION_TYPE":"U","ELEMENT_SET_NO":"999","OBJECT_TYPE":"PAYLOAD","ECCENTRICITY":"0.00017900","NORAD_CAT_ID":"48368","COUNTRY_CODE":"US","TIME_SYSTEM":"UTC","ARG_OF_PERICENTER":"48.7769","DECAY_DATE":null,"EPHEMERIS_TYPE":"0","EPOCH":"2022-03-11T16:32:07.356192","SEMIMAJOR_AXIS":"6925.323","PERIAPSIS":"545.948","LAUNCH_DATE":"2021-05-04","MEAN_MOTION_DOT":"0.00003533","MEAN_MOTION":"15.06408373","TLE_LINE1":"1 48368U 21038R   22070.68897403  .00003533  00000-0  25594-3 0  9991","MEAN_ANOMALY":"311.3374","FILE":"3355378","OBJECT_NAME":"STARLINK-2623","OBJECT_ID":"2021-038R","APOAPSIS":"548.428","PERIOD":"95.592","TLE_LINE2":"2 48368  53.0551  61.3164 0001790  48.7769 311.3374 15.06408373 47267","BSTAR":"0.00025594000000","GP_ID":"198519014","CENTER_NAME":"EARTH","SITE":"AFETR","REF_FRAME":"TEME","RA_OF_ASC_NODE":"61.3164","INCLINATION":"53.0551"},{"REF_FRAME":"TEME","RA_OF_ASC_NODE":"60.8170","INCLINATION":"53.0559","SITE":"AFETR","APOAPSIS":"548.531","TLE_LINE2":"2 48369  53.0559  60.8170 0001986  53.2470 306.8701 15.06418830 47277","PERIOD":"95.591","BSTAR":"0.00030068000000","CENTER_NAME":"EARTH","GP_ID":"198519266","MEAN_ANOMALY":"306.8701","OBJECT_NAME":"STARLINK-2641","FILE":"3355378","OBJECT_ID":"2021-038S","TLE_LINE1":"1 48369U 21038S   22070.80048863  .00004202  00000-0  30068-3 0  9990","MEAN_MOTION":"15.06418830","LAUNCH_DATE":"2021-05-04","MEAN_MOTION_DOT":"0.00004202","SEMIMAJOR_AXIS":"6925.291","PERIAPSIS":"545.780","EPHEMERIS_TYPE":"0","EPOCH":"2022-03-11T19:12:42.217632","DECAY_DATE":null,"NORAD_CAT_ID":"48369","COUNTRY_CODE":"US","ARG_OF_PERICENTER":"53.2470","TIME_SYSTEM":"UTC","OBJECT_TYPE":"PAYLOAD","ECCENTRICITY":"0.00019860","CLASSIFICATION_TYPE":"U","ELEMENT_SET_NO":"999","REV_AT_EPOCH":"4727","MEAN_MOTION_DDOT":"0.0000000000000","MEAN_ELEMENT_THEORY":"SGP4","RCS_SIZE":"LARGE"},{"COUNTRY_CODE":"US","ARG_OF_PERICENTER":"54.1082","TIME_SYSTEM":"UTC","NORAD_CAT_ID":"48370","DECAY_DATE":null,"EPOCH":"2022-03-11T15:56:18.960576","EPHEMERIS_TYPE":"0","RCS_SIZE":"LARGE","MEAN_ELEMENT_THEORY":"SGP4","MEAN_MOTION_DDOT":"0.0000000000000","REV_AT_EPOCH":"4725","ELEMENT_SET_NO":"999","CLASSIFICATION_TYPE":"U","ECCENTRICITY":"0.00017950","OBJECT_TYPE":"PAYLOAD","OBJECT_ID":"2021-038T","MEAN_ANOMALY":"306.0073","FILE":"3355378","OBJECT_NAME":"STARLINK-2621","TLE_LINE2":"2 48370  53.0563  61.4358 0001795  54.1082 306.0073 15.06406657 47252","PERIOD":"95.592","BSTAR":"0.00015979000000","CENTER_NAME":"EARTH","GP_ID":"198520016","APOAPSIS":"548.436","SITE":"AFETR","REF_FRAME":"TEME","RA_OF_ASC_NODE":"61.4358","INCLINATION":"53.0563","SEMIMAJOR_AXIS":"6925.328","PERIAPSIS":"545.950","LAUNCH_DATE":"2021-05-04","MEAN_MOTION_DOT":"0.00002100","TLE_LINE1":"1 48370U 21038T   22070.66410834  .00002100  00000-0  15979-3 0  9996","MEAN_MOTION":"15.06406657"},{"SITE":"AFETR","RA_OF_ASC_NODE":"61.4674","REF_FRAME":"TEME","INCLINATION":"53.0549","MEAN_ANOMALY":"306.2600","FILE":"3355378","OBJECT_NAME":"STARLINK-2589","OBJECT_ID":"2021-038U","APOAPSIS":"548.407","BSTAR":"0.00009113400000","TLE_LINE2":"2 48371  53.0549  61.4674 0001719  53.8548 306.2600 15.06399126 47257","PERIOD":"95.592","CENTER_NAME":"EARTH","GP_ID":"198518265","MEAN_MOTION":"15.06399126","TLE_LINE1":"1 48371U 21038U   22070.66043145  .00001076  00000-0  91134-4 0  9993","SEMIMAJOR_AXIS":"6925.351","PERIAPSIS":"546.026","LAUNCH_DATE":"2021-05-04","MEAN_MOTION_DOT":"0.00001076","DECAY_DATE":null,"EPHEMERIS_TYPE":"0","EPOCH":"2022-03-11T15:51:01.277280","NORAD_CAT_ID":"48371","COUNTRY_CODE":"US","ARG_OF_PERICENTER":"53.8548","TIME_SYSTEM":"UTC","CLASSIFICATION_TYPE":"U","ELEMENT_SET_NO":"999","OBJECT_TYPE":"PAYLOAD","ECCENTRICITY":"0.00017190","RCS_SIZE":"LARGE","MEAN_ELEMENT_THEORY":"SGP4","REV_AT_EPOCH":"4725","MEAN_MOTION_DDOT":"0.0000000000000"},{"PERIAPSIS":"545.883","SEMIMAJOR_AXIS":"6925.343","LAUNCH_DATE":"2021-05-04","MEAN_MOTION_DOT":"0.00002659","TLE_LINE1":"1 48372U 21038V   22070.45770793  .00002659  00000-0  19731-3 0  9997","MEAN_MOTION":"15.06401942","OBJECT_ID":"2021-038V","MEAN_ANOMALY":"313.6094","OBJECT_NAME":"STARLINK-2572","FILE":"3355162","TLE_LINE2":"2 48372  53.0568  62.3765 0001912  46.5054 313.6094 15.06401942 47817","BSTAR":"0.00019731000000","PERIOD":"95.592","CENTER_NAME":"EARTH","GP_ID":"198492276","APOAPSIS":"548.532","SITE":"AFETR","RA_OF_ASC_NODE":"62.3765","REF_FRAME":"TEME","INCLINATION":"53.0568","RCS_SIZE":"LARGE","MEAN_ELEMENT_THEORY":"SGP4","MEAN_MOTION_DDOT":"0.0000000000000","REV_AT_EPOCH":"4781","ELEMENT_SET_NO":"999","CLASSIFICATION_TYPE":"U","ECCENTRICITY":"0.00019120","OBJECT_TYPE":"PAYLOAD","COUNTRY_CODE":"US","TIME_SYSTEM":"UTC","ARG_OF_PERICENTER":"46.5054","NORAD_CAT_ID":"48372","DECAY_DATE":null,"EPOCH":"2022-03-11T10:59:05.965152","EPHEMERIS_TYPE":"0"},{"SITE":"AFETR","RA_OF_ASC_NODE":"62.6953","REF_FRAME":"TEME","INCLINATION":"53.0552","MEAN_ANOMALY":"299.5553","OBJECT_NAME":"STARLINK-2609","FILE":"3354959","OBJECT_ID":"2021-038W","APOAPSIS":"548.507","TLE_LINE2":"2 48373  53.0552  62.6953 0001895  60.5625 299.5553 15.06406317 47210","BSTAR":"0.00022590000000","PERIOD":"95.592","CENTER_NAME":"EARTH","GP_ID":"198483691","MEAN_MOTION":"15.06406317","TLE_LINE1":"1 48373U 21038W   22070.38767370  .00003085  00000-0  22590-3 0  9998","PERIAPSIS":"545.882","SEMIMAJOR_AXIS":"6925.329","LAUNCH_DATE":"2021-05-04","MEAN_MOTION_DOT":"0.00003085","DECAY_DATE":null,"EPHEMERIS_TYPE":"0","EPOCH":"2022-03-11T09:18:15.007680","NORAD_CAT_ID":"48373","COUNTRY_CODE":"US","ARG_OF_PERICENTER":"60.5625","TIME_SYSTEM":"UTC","CLASSIFICATION_TYPE":"U","ELEMENT_SET_NO":"999","OBJECT_TYPE":"PAYLOAD","ECCENTRICITY":"0.00018950","RCS_SIZE":"LARGE","MEAN_ELEMENT_THEORY":"SGP4","REV_AT_EPOCH":"4721","MEAN_MOTION_DDOT":"0.0000000000000"},{"MEAN_MOTION":"15.06400784","TLE_LINE1":"1 48374U 21038X   22070.25129517  .00002022  00000-0  15460-3 0  9998","SEMIMAJOR_AXIS":"6925.346","PERIAPSIS":"545.841","MEAN_MOTION_DOT":"0.00002022","LAUNCH_DATE":"2021-05-04","SITE":"AFETR","INCLINATION":"53.0567","REF_FRAME":"TEME","RA_OF_ASC_NODE":"63.2978","OBJECT_NAME":"STARLINK-2604","FILE":"3354959","MEAN_ANOMALY":"298.8022","OBJECT_ID":"2021-038X","APOAPSIS":"548.581","CENTER_NAME":"EARTH","GP_ID":"198482939","TLE_LINE2":"2 48374  53.0567  63.2978 0001978  61.3166 298.8022 15.06400784 47194","BSTAR":"0.00015460000000","PERIOD":"95.592","CLASSIFICATION_TYPE":"U","ELEMENT_SET_NO":"999","OBJECT_TYPE":"PAYLOAD","ECCENTRICITY":"0.00019780","RCS_SIZE":"LARGE","MEAN_ELEMENT_THEORY":"SGP4","REV_AT_EPOCH":"4719","MEAN_MOTION_DDOT":"0.0000000000000","DECAY_DATE":null,"EPHEMERIS_TYPE":"0","EPOCH":"2022-03-11T06:01:51.902688","NORAD_CAT_ID":"48374","TIME_SYSTEM":"UTC","ARG_OF_PERICENTER":"61.3166","COUNTRY_CODE":"US"}];
